[{"OBJECT_NAME":"TISAT 1","OBJECT_ID":"2010-035E","EPOCH":"2026-03-09T18:10:07.877568","MEAN_MOTION":15.27628633,"ECCENTRICITY":0.00013432,"INCLINATION":98.0645,"RA_OF_ASC_NODE":6.8512,"ARG_OF_PERICENTER":159.303,"MEAN_ANOMALY":200.8262,"EPHEMERIS_TYPE":0,"CLASSIFICATION_TYPE":"U","NORAD_CAT_ID":36799,"ELEMENT_SET_NO":999,"REV_AT_EPOCH":85250,"BSTAR":0.00091004793,"MEAN_MOTION_DOT":0.00024554,"MEAN_MOTION_DDOT":0},{"OBJECT_NAME":"STARLINK-30461","OBJECT_ID":"2023-147W","EPOCH":"2026-03-09T22:00:01.999584","MEAN_MOTION":15.26623484,"ECCENTRICITY":0.00018456,"INCLINATION":42.9986,"RA_OF_ASC_NODE":323.4361,"ARG_OF_PERICENTER":279.8804,"MEAN_ANOMALY":251.6917,"EPHEMERIS_TYPE":0,"CLASSIFICATION_TYPE":"U","NORAD_CAT_ID":57933,"ELEMENT_SET_NO":999,"REV_AT_EPOCH":578,"BSTAR":0.0017469178,"MEAN_MOTION_DOT":0.00046731,"MEAN_MOTION_DDOT":0}]
